[{"OBJECT_NAME":"HULIANWANG DIGUI-80","OBJECT_ID":"2025-187H","EPOCH":"2026-03-09T21:48:31.066560","MEAN_MOTION":13.29341563,"ECCENTRICITY":0.00010367,"INCLINATION":50.0021,"RA_OF_ASC_NODE":201.9725,"ARG_OF_PERICENTER":153.3198,"MEAN_ANOMALY":206.7727,"EPHEMERIS_TYPE":0,"CLASSIFICATION_TYPE":"U","NORAD_CAT_ID":65312,"ELEMENT_SET_NO":999,"REV_AT_EPOCH":2649,"BSTAR":8.5166282e-5,"MEAN_MOTION_DOT":-8.5e-7,"MEAN_MOTION_DDOT":0},{"OBJECT_NAME":"SL-8 R\/B","OBJECT_ID":"1969-103B","EPOCH":"2026-03-09T12:58:26.842080","MEAN_MOTION":13.29648467,"ECCENTRICITY":0.00109257,"INCLINATION":74.0122,"RA_OF_ASC_NODE":93.8674,"ARG_OF_PERICENTER":8.2097,"MEAN_ANOMALY":106.2064,"EPHEMERIS_TYPE":0,"CLASSIFICATION_TYPE":"U","NORAD_CAT_ID":4255,"ELEMENT_SET_NO":999,"REV_AT_EPOCH":73109,"BSTAR":0.00020066149,"MEAN_MOTION_DOT":7.3e-7,"MEAN_MOTION_DDOT":0}]
